start=new Date('2021-11-12T00:00:00.000Z').valueOf();
sats=[{"DECAY_DATE":null,"ECCENTRICITY":"0.00017960","OBJECT_NAME":"STARLINK-2614","RA_OF_ASC_NODE":"239.0748","SITE":"AFETR","REF_FRAME":"TEME","MEAN_MOTION":"15.06392547","MEAN_MOTION_DDOT":"0.0000000000000","ARG_OF_PERICENTER":"71.7708","CENTER_NAME":"EARTH","MEAN_MOTION_DOT":"-0.00004608","INCLINATION":"53.0544","TIME_SYSTEM":"UTC","EPOCH":"2021-11-11T21:35:28.270464","RCS_SIZE":"LARGE","APOAPSIS":"548.480","REV_AT_EPOCH":"2920","SEMIMAJOR_AXIS":"6925.371","ELEMENT_SET_NO":"999","PERIOD":"95.593","OBJECT_TYPE":"PAYLOAD","GP_ID":"189526948","TLE_LINE1":"1 48380U 21038AD  21315.89963276 -.00004608  00000-0 -29068-3 0  9997","COUNTRY_CODE":"US","TLE_LINE2":"2 48380  53.0544 239.0748 0001796  71.7708 288.3476 15.06392547 29205","PERIAPSIS":"545.993","MEAN_ELEMENT_THEORY":"SGP4","BSTAR":"-0.00029068000000","LAUNCH_DATE":"2021-05-04","EPHEMERIS_TYPE":"0","OBJECT_ID":"2021-038AD","CLASSIFICATION_TYPE":"U","FILE":"3212485","NORAD_CAT_ID":"48380","MEAN_ANOMALY":"288.3476"},{"MEAN_MOTION_DOT":"0.00000579","CENTER_NAME":"EARTH","DECAY_DATE":null,"ECCENTRICITY":"0.00013720","OBJECT_NAME":"STARLINK-2630","MEAN_MOTION":"15.06389175","REF_FRAME":"TEME","MEAN_MOTION_DDOT":"0.0000000000000","ARG_OF_PERICENTER":"71.4304","RA_OF_ASC_NODE":"238.9111","SITE":"AFETR","APOAPSIS":"548.197","REV_AT_EPOCH":"2921","SEMIMAJOR_AXIS":"6925.382","ELEMENT_SET_NO":"999","PERIOD":"95.593","INCLINATION":"53.0570","TIME_SYSTEM":"UTC","EPOCH":"2021-11-11T22:29:56.690016","RCS_SIZE":"LARGE","COUNTRY_CODE":"US","BSTAR":"0.00005775000000","MEAN_ELEMENT_THEORY":"SGP4","TLE_LINE2":"2 48381  53.0570 238.9111 0001372  71.4304 288.6834 15.06389175 29211","PERIAPSIS":"546.297","OBJECT_TYPE":"PAYLOAD","GP_ID":"189527202","TLE_LINE1":"1 48381U 21038AE  21315.93746169  .00000579  00000-0  57750-4 0  9994","OBJECT_ID":"2021-038AE","EPHEMERIS_TYPE":"0","FILE":"3212485","NORAD_CAT_ID":"48381","MEAN_ANOMALY":"288.6834","CLASSIFICATION_TYPE":"U","LAUNCH_DATE":"2021-05-04"},{"MEAN_MOTION_DOT":"0.00004121","CENTER_NAME":"EARTH","ECCENTRICITY":"0.00015020","DECAY_DATE":null,"OBJECT_NAME":"STARLINK-2585","REF_FRAME":"TEME","MEAN_MOTION":"15.06443076","MEAN_MOTION_DDOT":"0.0000000000000","ARG_OF_PERICENTER":"56.5840","RA_OF_ASC_NODE":"238.9235","SITE":"AFETR","REV_AT_EPOCH":"2921","APOAPSIS":"548.122","SEMIMAJOR_AXIS":"6925.217","ELEMENT_SET_NO":"999","PERIOD":"95.589","TIME_SYSTEM":"UTC","INCLINATION":"53.0557","EPOCH":"2021-11-11T22:24:32.848128","RCS_SIZE":"LARGE","COUNTRY_CODE":"US","BSTAR":"0.00029502000000","MEAN_ELEMENT_THEORY":"SGP4","TLE_LINE2":"2 48382  53.0557 238.9235 0001502  56.5840 303.5293 15.06443076 29215","PERIAPSIS":"546.041","OBJECT_TYPE":"PAYLOAD","GP_ID":"189527453","TLE_LINE1":"1 48382U 21038AF  21315.93371352  .00004121  00000-0  29502-3 0  9993","OBJECT_ID":"2021-038AF","EPHEMERIS_TYPE":"0","FILE":"3212485","NORAD_CAT_ID":"48382","MEAN_ANOMALY":"303.5293","CLASSIFICATION_TYPE":"U","LAUNCH_DATE":"2021-05-04"},{"TLE_LINE2":"2 48383  53.0549 238.9356 0001606  74.8978 285.2188 15.06406764 30439","PERIAPSIS":"546.081","MEAN_ELEMENT_THEORY":"SGP4","BSTAR":"-0.00003645800000","COUNTRY_CODE":"US","GP_ID":"189526201","TLE_LINE1":"1 48383U 21038AG  21315.93007107 -.00000825  00000-0 -36458-4 0  9996","OBJECT_TYPE":"PAYLOAD","CLASSIFICATION_TYPE":"U","FILE":"3212485","NORAD_CAT_ID":"48383","MEAN_ANOMALY":"285.2188","EPHEMERIS_TYPE":"0","OBJECT_ID":"2021-038AG","LAUNCH_DATE":"2021-05-04","CENTER_NAME":"EARTH","MEAN_MOTION_DOT":"-0.00000825","SITE":"AFETR","RA_OF_ASC_NODE":"238.9356","MEAN_MOTION":"15.06406764","REF_FRAME":"TEME","ARG_OF_PERICENTER":"74.8978","MEAN_MOTION_DDOT":"0.0000000000000","ECCENTRICITY":"0.00016060","DECAY_DATE":null,"OBJECT_NAME":"STARLINK-2599","PERIOD":"95.592","REV_AT_EPOCH":"3043","APOAPSIS":"548.305","SEMIMAJOR_AXIS":"6925.328","ELEMENT_SET_NO":"999","EPOCH":"2021-11-11T22:19:18.140448","RCS_SIZE":"LARGE","TIME_SYSTEM":"UTC","INCLINATION":"53.0549"},{"MEAN_MOTION_DOT":"0.00000132","CENTER_NAME":"EARTH","DECAY_DATE":null,"ECCENTRICITY":"0.00017080","OBJECT_NAME":"STARLINK-2601","REF_FRAME":"TEME","MEAN_MOTION":"15.06403608","ARG_OF_PERICENTER":"70.0221","MEAN_MOTION_DDOT":"0.0000000000000","RA_OF_ASC_NODE":"239.5436","SITE":"AFETR","APOAPSIS":"548.385","REV_AT_EPOCH":"3041","ELEMENT_SET_NO":"999","SEMIMAJOR_AXIS":"6925.337","PERIOD":"95.592","TIME_SYSTEM":"UTC","INCLINATION":"53.0539","EPOCH":"2021-11-11T19:02:54.774528","RCS_SIZE":"LARGE","COUNTRY_CODE":"US","MEAN_ELEMENT_THEORY":"SGP4","BSTAR":"0.00002777500000","TLE_LINE2":"2 48384  53.0539 239.5436 0001708  70.0221 290.0952 15.06403608 30412","PERIAPSIS":"546.020","OBJECT_TYPE":"PAYLOAD","GP_ID":"189526451","TLE_LINE1":"1 48384U 21038AH  21315.79368952  .00000132  00000-0  27775-4 0  9990","OBJECT_ID":"2021-038AH","EPHEMERIS_TYPE":"0","FILE":"3212485","NORAD_CAT_ID":"48384","MEAN_ANOMALY":"290.0952","CLASSIFICATION_TYPE":"U","LAUNCH_DATE":"2021-05-04"},{"TIME_SYSTEM":"UTC","INCLINATION":"53.0548","EPOCH":"2021-11-11T12:35:26.865600","RCS_SIZE":"LARGE","REV_AT_EPOCH":"3037","APOAPSIS":"548.236","SEMIMAJOR_AXIS":"6925.322","ELEMENT_SET_NO":"999","PERIOD":"95.592","OBJECT_NAME":"STARLINK-2598","DECAY_DATE":null,"ECCENTRICITY":"0.00015150","RA_OF_ASC_NODE":"240.7540","SITE":"AFETR","REF_FRAME":"TEME","MEAN_MOTION":"15.06408731","MEAN_MOTION_DDOT":"0.0000000000000","ARG_OF_PERICENTER":"74.5039","CENTER_NAME":"EARTH","MEAN_MOTION_DOT":"-0.00000004","LAUNCH_DATE":"2021-05-04","EPHEMERIS_TYPE":"0","OBJECT_ID":"2021-038AJ","CLASSIFICATION_TYPE":"U","FILE":"3212088","NORAD_CAT_ID":"48385","MEAN_ANOMALY":"285.6117","OBJECT_TYPE":"PAYLOAD","GP_ID":"189494163","TLE_LINE1":"1 48385U 21038AJ  21315.52461650 -.00000004  00000-0  18616-4 0  9994","COUNTRY_CODE":"US","TLE_LINE2":"2 48385  53.0548 240.7540 0001515  74.5039 285.6117 15.06408731 30375","PERIAPSIS":"546.138","MEAN_ELEMENT_THEORY":"SGP4","BSTAR":"0.00001861600000"},{"LAUNCH_DATE":"2021-05-04","CLASSIFICATION_TYPE":"U","MEAN_ANOMALY":"294.2965","NORAD_CAT_ID":"48386","FILE":"3212088","EPHEMERIS_TYPE":"0","OBJECT_ID":"2021-038AK","TLE_LINE1":"1 48386U 21038AK  21315.51123360  .00002012  00000-0  15394-3 0  9996","GP_ID":"189494915","OBJECT_TYPE":"PAYLOAD","PERIAPSIS":"546.138","TLE_LINE2":"2 48386  53.0565 235.8228 0001558  65.8186 294.2965 15.06398903 29213","BSTAR":"0.00015394000000","MEAN_ELEMENT_THEORY":"SGP4","COUNTRY_CODE":"US","RCS_SIZE":"LARGE","EPOCH":"2021-11-11T12:16:10.583040","INCLINATION":"53.0565","TIME_SYSTEM":"UTC","PERIOD":"95.592","ELEMENT_SET_NO":"999","SEMIMAJOR_AXIS":"6925.352","REV_AT_EPOCH":"2921","APOAPSIS":"548.296","SITE":"AFETR","RA_OF_ASC_NODE":"235.8228","MEAN_MOTION_DDOT":"0.0000000000000","ARG_OF_PERICENTER":"65.8186","MEAN_MOTION":"15.06398903","REF_FRAME":"TEME","DECAY_DATE":null,"ECCENTRICITY":"0.00015580","OBJECT_NAME":"STARLINK-2606","CENTER_NAME":"EARTH","MEAN_MOTION_DOT":"0.00002012"},{"COUNTRY_CODE":"US","PERIAPSIS":"546.119","TLE_LINE2":"2 48387  53.0567 233.8907 0001583  65.8366 294.2789 15.06399494 29283","BSTAR":"0.00005557100000","MEAN_ELEMENT_THEORY":"SGP4","OBJECT_TYPE":"PAYLOAD","TLE_LINE1":"1 48387U 21038AL  21315.94248308  .00000546  00000-0  55571-4 0  9996","GP_ID":"189526699","EPHEMERIS_TYPE":"0","OBJECT_ID":"2021-038AL","CLASSIFICATION_TYPE":"U","NORAD_CAT_ID":"48387","MEAN_ANOMALY":"294.2789","FILE":"3212485","LAUNCH_DATE":"2021-05-04","CENTER_NAME":"EARTH","MEAN_MOTION_DOT":"0.00000546","ECCENTRICITY":"0.00015830","DECAY_DATE":null,"OBJECT_NAME":"STARLINK-2600","SITE":"AFETR","RA_OF_ASC_NODE":"233.8907","MEAN_MOTION_DDOT":"0.0000000000000","ARG_OF_PERICENTER":"65.8366","REF_FRAME":"TEME","MEAN_MOTION":"15.06399494","SEMIMAJOR_AXIS":"6925.350","ELEMENT_SET_NO":"999","REV_AT_EPOCH":"2928","APOAPSIS":"548.311","PERIOD":"95.592","TIME_SYSTEM":"UTC","INCLINATION":"53.0567","RCS_SIZE":"MEDIUM","EPOCH":"2021-11-11T22:37:10.538112"},{"OBJECT_ID":"2021-038AM","EPHEMERIS_TYPE":"0","FILE":"3212485","NORAD_CAT_ID":"48388","MEAN_ANOMALY":"279.8654","CLASSIFICATION_TYPE":"U","LAUNCH_DATE":"2021-05-04","COUNTRY_CODE":"US","BSTAR":"0.00003426200000","MEAN_ELEMENT_THEORY":"SGP4","TLE_LINE2":"2 48388  53.0553 233.9067 0001472  80.2501 279.8654 15.06395154 29285","PERIAPSIS":"546.209","OBJECT_TYPE":"PAYLOAD","GP_ID":"189526949","TLE_LINE1":"1 48388U 21038AM  21315.93605275  .00000229  00000-0  34262-4 0  9998","APOAPSIS":"548.248","REV_AT_EPOCH":"2928","SEMIMAJOR_AXIS":"6925.363","ELEMENT_SET_NO":"999","PERIOD":"95.592","INCLINATION":"53.0553","TIME_SYSTEM":"UTC","EPOCH":"2021-11-11T22:27:54.957600","RCS_SIZE":"LARGE","MEAN_MOTION_DOT":"0.00000229","CENTER_NAME":"EARTH","DECAY_DATE":null,"ECCENTRICITY":"0.00014720","OBJECT_NAME":"STARLINK-2594","REF_FRAME":"TEME","MEAN_MOTION":"15.06395154","MEAN_MOTION_DDOT":"0.0000000000000","ARG_OF_PERICENTER":"80.2501","SITE":"AFETR","RA_OF_ASC_NODE":"233.9067"},{"REV_AT_EPOCH":"2934","APOAPSIS":"548.400","SEMIMAJOR_AXIS":"6925.375","ELEMENT_SET_NO":"999","PERIOD":"95.593","INCLINATION":"53.0558","TIME_SYSTEM":"UTC","EPOCH":"2021-11-11T22:10:00.071616","RCS_SIZE":"LARGE","CENTER_NAME":"EARTH","MEAN_MOTION_DOT":"0.00000309","ECCENTRICITY":"0.00016750","DECAY_DATE":null,"OBJECT_NAME":"STARLINK-1904","RA_OF_ASC_NODE":"228.9594","SITE":"AFETR","REF_FRAME":"TEME","MEAN_MOTION":"15.06391314","ARG_OF_PERICENTER":"71.7805","MEAN_MOTION_DDOT":"0.0000000000000","EPHEMERIS_TYPE":"0","OBJECT_ID":"2021-038AN","CLASSIFICATION_TYPE":"U","FILE":"3212485","NORAD_CAT_ID":"48389","MEAN_ANOMALY":"288.3366","LAUNCH_DATE":"2021-05-04","COUNTRY_CODE":"US","TLE_LINE2":"2 48389  53.0558 228.9594 0001675  71.7805 288.3366 15.06391314 29343","PERIAPSIS":"546.080","BSTAR":"0.00003964900000","MEAN_ELEMENT_THEORY":"SGP4","OBJECT_TYPE":"PAYLOAD","GP_ID":"189527203","TLE_LINE1":"1 48389U 21038AN  21315.92361194  .00000309  00000-0  39649-4 0  9990"}];
